NORAD_CAT_ID,OBJECT_NAME,OBJECT_TYPE,EPOCH,MEAN_MOTION,ECCENTRICITY,INCLINATION,RA_OF_ASC_NODE,ARG_OF_PERICENTER,MEAN_ANOMALY,BSTAR,MEAN_MOTION_DOT,MEAN_MOTION_DDOT,TLE_LINE0,TLE_LINE1,TLE_LINE2,SEMIMAJOR_AXIS,PERIOD,APOGEE,PERIGEE,DECAYED
53558.0,STARLINK-4494,PAYLOAD,2023-10-22 21:58:10,15.08837803,0.000116,53.2171,358.9228,92.3282,267.7843,8.302e-05,1.034e-05,0.0,0 STARLINK-4494,1 53558U 22101AH  23295.91539553  .00001034  00000-0  83020-4 0  9998,2 53558  53.2171 358.9228 0001160  92.3282 267.7843 15.08837803 65885,6917.887,95.438,540.555,538.95,0.0
53558.0,STARLINK-4494,PAYLOAD,2023-10-23 10:41:15,15.08838063,0.000146,53.2185,356.542,100.7459,259.3697,-1.7986e-05,-5.74e-06,0.0,0 STARLINK-4494,1 53558U 22101AH  23296.44532042 -.00000574  00000-0 -17986-4 0  9991,2 53558  53.2185 356.5420 0001460 100.7459 259.3697 15.08838063 65301,6917.886,95.438,540.761,538.741,0.0
53558.0,STARLINK-4494,PAYLOAD,2023-10-24 10:32:02,15.08837327,0.0001252,53.2181,352.0837,98.1833,261.9301,0.0002383,3.506e-05,0.0,0 STARLINK-4494,1 53558U 22101AH  23297.43891654  .00003506  00000-0  23830-3 0  9998,2 53558  53.2181 352.0837 0001252  98.1833 261.9301 15.08837327 66118,6917.889,95.438,540.62,538.887,0.0
53558.0,STARLINK-4494,PAYLOAD,2023-10-25 10:22:49,15.08843601,0.0001153,53.2182,347.6237,83.1423,276.9701,0.00011212,1.497e-05,0.0,0 STARLINK-4494,1 53558U 22101AH  23298.43251635  .00001497  00000-0  11212-3 0  9996,2 53558  53.2182 347.6237 0001153  83.1423 276.9701 15.08843601 65607,6917.869,95.437,540.532,538.937,0.0
53558.0,STARLINK-4494,PAYLOAD,2023-10-25 19:55:08,15.08843616,0.0001252,53.2182,345.8395,92.3394,267.7741,0.00011012,1.465e-05,0.0,0 STARLINK-4494,1 53558U 22101AH  23298.82995558  .00001465  00000-0  11012-3 0  9991,2 53558  53.2182 345.8395 0001252  92.3394 267.7741 15.08843616 66329,6917.869,95.437,540.6,538.868,0.0
53558.0,STARLINK-4494,PAYLOAD,2023-10-26 11:48:59,15.08843903,0.0001424,53.2197,342.8696,93.7419,266.3736,6.4063e-05,7.32e-06,0.0,0 STARLINK-4494,1 53558U 22101AH  23299.49235697  .00000732  00000-0  64063-4 0  9997,2 53558  53.2197 342.8696 0001424  93.7419 266.3736 15.08843903 65765,6917.868,95.437,540.719,538.748,0.0
53558.0,STARLINK-4494,PAYLOAD,2023-10-26 19:45:55,15.08844715,0.0001578,53.22,341.3799,93.7153,266.4019,-9.9118e-06,-4.46e-06,0.0,0 STARLINK-4494,1 53558U 22101AH  23299.82355690 -.00000446  00000-0 -99118-5 0  9994,2 53558  53.2200 341.3799 0001578  93.7153 266.4019 15.08844715 66479,6917.866,95.437,540.823,538.639,0.0
53558.0,STARLINK-4494,PAYLOAD,2023-10-27 11:39:45,15.08855446,0.0001561,53.2179,338.4042,97.1297,262.9873,0.00015499,2.181e-05,0.0,0 STARLINK-4494,1 53558U 22101AH  23300.48594546  .00002181  00000-0  15499-3 0  9998,2 53558  53.2179 338.4042 0001561  97.1297 262.9873 15.08855446 65911,6917.833,95.437,540.778,538.618,0.0
53558.0,STARLINK-4494,PAYLOAD,2023-10-27 13:15:08,15.08856811,0.0001635,53.2178,338.1061,96.0321,264.0858,0.00021062,3.067e-05,0.0,0 STARLINK-4494,1 53558U 22101AH  23300.55218545  .00003067  00000-0  21062-3 0  9995,2 53558  53.2178 338.1061 0001635  96.0321 264.0858 15.08856811 66583,6917.829,95.436,540.825,538.563,0.0
53558.0,STARLINK-4494,PAYLOAD,2023-10-27 19:36:42,15.08843116,0.0002379,53.2174,336.914,75.991,284.1346,1.1117e-05,-1.11e-06,0.0,0 STARLINK-4494,1 53558U 22101AH  23300.81715466 -.00000111  00000-0  11117-4 0  9997,2 53558  53.2174 336.9140 0002379  75.9910 284.1346 15.08843116 65969,6917.871,95.437,541.382,538.09,0.0
53558.0,STARLINK-4494,PAYLOAD,2023-10-28 09:55:11,15.08827803,0.0001645,53.2175,334.2455,84.0387,276.0792,-0.00013996,-2.514e-05,0.0,0 STARLINK-4494,1 53558U 22101AH  23301.41332320 -.00002514  00000-0 -13996-3 0  9994,2 53558  53.2175 334.2455 0001645  84.0387 276.0792 15.08827803 66055,6917.918,95.438,540.921,538.645,0.0
53558.0,STARLINK-4494,PAYLOAD,2023-10-28 11:30:34,15.08828684,0.0001721,53.2173,333.9489,90.1651,269.9539,-0.00012016,-2.199e-05,0.0,0 STARLINK-4494,1 53558U 22101AH  23301.47956415 -.00002199  00000-0 -12016-3 0  9998,2 53558  53.2173 333.9489 0001721  90.1651 269.9539 15.08828684 66725,6917.915,95.438,540.971,538.589,0.0
53558.0,STARLINK-4494,PAYLOAD,2023-10-28 19:27:29,15.08838119,0.0001655,53.2177,332.4575,85.0025,275.1156,5.0396e-05,5.14e-06,0.0,0 STARLINK-4494,1 53558U 22101AH  23301.81076026  .00000514  00000-0  50396-4 0  9998,2 53558  53.2177 332.4575 0001655  85.0025 275.1156 15.08838119 66114,6917.886,95.438,540.896,538.606,0.0
53558.0,STARLINK-4494,PAYLOAD,2023-10-29 09:45:57,15.08856009,0.0001583,53.2157,329.781,84.6704,275.4468,0.00063569,9.848e-05,0.0,0 STARLINK-4494,1 53558U 22101AH  23302.40691559  .00009848  00000-0  63569-3 0  9992,2 53558  53.2157 329.7810 0001583  84.6704 275.4468 15.08856009 66209,6917.831,95.437,540.792,538.601,0.0
53558.0,STARLINK-4494,PAYLOAD,2023-10-29 19:18:16,15.08849296,0.0001777,53.2178,327.9962,90.1211,269.9984,0.00043056,6.573e-05,0.0,0 STARLINK-4494,1 53558U 22101AH  23302.80435848  .00006573  00000-0  43056-3 0  9994,2 53558  53.2178 327.9962 0001777  90.1211 269.9984 15.08849296 66920,6917.852,95.437,540.946,538.488,0.0
53558.0,STARLINK-4494,PAYLOAD,2023-10-30 11:12:08,15.08841864,0.0001693,53.2166,325.0205,100.4554,259.6629,0.00017889,2.56e-05,0.0,0 STARLINK-4494,1 53558U 22101AH  23303.46676044  .00002560  00000-0  17889-3 0  9999,2 53558  53.2166 325.0205 0001693 100.4554 259.6629 15.08841864 66361,6917.875,95.437,540.911,538.568,0.0
53558.0,STARLINK-4494,PAYLOAD,2023-10-31 04:41:23,15.08835508,0.0001673,53.2175,321.7516,90.6801,269.4383,1.8859e-05,1.2e-07,0.0,0 STARLINK-4494,1 53558U 22101AH  23304.19540630  .00000012  00000-0  18859-4 0  9990,2 53558  53.2175 321.7516 0001673  90.6801 269.4383 15.08835508 66478,6917.894,95.438,540.916,538.602,0.0
53558.0,STARLINK-4494,PAYLOAD,2023-10-31 07:52:09,15.08838818,0.0001707,53.2175,321.1564,89.3407,270.778,3.8759e-05,3.29e-06,0.0,0 STARLINK-4494,1 53558U 22101AH  23304.32788601  .00000329  00000-0  38759-4 0  9999,2 53558  53.2175 321.1564 0001707  89.3407 270.7780 15.08838818 67159,6917.884,95.438,540.93,538.568,0.0
53558.0,STARLINK-4494,PAYLOAD,2023-11-01 10:53:42,15.08850881,0.0001801,53.2167,316.1009,96.2686,263.8511,0.00040487,6.163e-05,0.0,0 STARLINK-4494,1 53558U 22101AH  23305.45396440  .00006163  00000-0  40487-3 0  9992,2 53558  53.2167 316.1009 0001801  96.2686 263.8511 15.08850881 66663,6917.847,95.437,540.958,538.466,0.0
53558.0,STARLINK-4494,PAYLOAD,2023-11-02 04:22:56,15.0884657,0.000221,53.2159,312.8264,117.5684,242.5533,0.00018203,2.61e-05,0.0,0 STARLINK-4494,1 53558U 22101AH  23306.18260415  .00002610  00000-0  18203-3 0  9999,2 53558  53.2159 312.8264 0002210 117.5684 242.5533 15.08846570 66770,6917.86,95.437,541.254,538.196,0.0
53558.0,STARLINK-4494,PAYLOAD,2023-11-02 07:33:43,15.08850318,0.0001665,53.2178,312.2363,93.939,266.1793,0.00027851,4.148e-05,0.0,0 STARLINK-4494,1 53558U 22101AH  23306.31508421  .00004148  00000-0  27851-3 0  9993,2 53558  53.2178 312.2363 0001665  93.9390 266.1793 15.08850318 67450,6917.849,95.437,540.866,538.562,0.0
53558.0,STARLINK-4494,PAYLOAD,2023-11-02 17:06:02,15.08846489,0.0001627,53.2179,310.451,92.9198,267.198,0.00013867,1.92e-05,0.0,0 STARLINK-4494,1 53558U 22101AH  23306.71252391  .00001920  00000-0  13867-3 0  9996,2 53558  53.2179 310.4510 0001627  92.9198 267.1980 15.08846489 67518,6917.861,95.437,540.851,538.6,0.0
53558.0,STARLINK-4494,PAYLOAD,2023-11-03 04:13:44,15.08832497,0.0001734,53.2175,308.3683,89.5378,270.5813,-0.0001248,-2.273e-05,0.0,0 STARLINK-4494,1 53558U 22101AH  23307.17620886 -.00002273  00000-0 -12480-3 0  9999,2 53558  53.2175 308.3683 0001734  89.5378 270.5813 15.08832497 66923,6917.903,95.438,540.968,538.569,0.0
53558.0,STARLINK-4494,PAYLOAD,2023-11-03 08:59:53,15.0884042,0.0001892,53.218,307.4788,99.7587,260.3619,1.685e-05,-2e-07,0.0,0 STARLINK-4494,1 53558U 22101AH  23307.37492761 -.00000020  00000-0  16850-4 0  9993,2 53558  53.2180 307.4788 0001892  99.7587 260.3619 15.08840420 67618,6917.879,95.438,541.053,538.435,0.0
53558.0,STARLINK-4494,PAYLOAD,2023-11-03 16:56:49,15.08836786,0.000173,53.2173,305.9908,89.8265,270.2926,9.4727e-06,-1.37e-06,0.0,0 STARLINK-4494,1 53558U 22101AH  23307.70612949 -.00000137  00000-0  94727-5 0  9991,2 53558  53.2173 305.9908 0001730  89.8265 270.2926 15.08836786 67667,6917.89,95.438,540.952,538.558,0.0
53558.0,STARLINK-4494,PAYLOAD,2023-11-04 04:04:31,15.08842094,0.0001788,53.218,303.9112,103.3894,256.7298,0.00010464,1.378e-05,0.0,0 STARLINK-4494,1 53558U 22101AH  23308.16980970  .00001378  00000-0  10464-3 0  9995,2 53558  53.2180 303.9112 0001788 103.3894 256.7298 15.08842094 67078,6917.874,95.437,540.976,538.502,0.0
53558.0,STARLINK-4494,PAYLOAD,2023-11-04 10:26:03,15.08848363,0.0001731,53.2168,302.7202,92.9437,267.1753,0.00027406,4.077e-05,0.0,0 STARLINK-4494,1 53558U 22101AH  23308.43476741  .00004077  00000-0  27406-3 0  9994,2 53558  53.2168 302.7202 0001731  92.9437 267.1753 15.08848363 67779,6917.855,95.437,540.917,538.522,0.0
53558.0,STARLINK-4494,PAYLOAD,2023-11-04 23:09:09,15.08839229,0.0001935,53.2167,300.3401,87.6289,272.4925,0.00017862,2.556e-05,0.0,0 STARLINK-4494,1 53558U 22101AH  23308.96469262  .00002556  00000-0  17862-3 0  9997,2 53558  53.2167 300.3401 0001935  87.6289 272.4925 15.08839229 67855,6917.883,95.438,541.086,538.409,0.0
53558.0,STARLINK-4494,PAYLOAD,2023-11-05 08:41:27,15.08850955,0.0001751,53.2166,298.5561,86.1893,273.93,0.00030272,4.534e-05,0.0,0 STARLINK-4494,1 53558U 22101AH  23309.36212733  .00004534  00000-0  30272-3 0  9999,2 53558  53.2166 298.5561 0001751  86.1893 273.9300 15.08850955 67256,6917.847,95.437,540.923,538.501,0.0
53558.0,STARLINK-4494,PAYLOAD,2023-11-05 16:38:23,15.0884256,0.0001641,53.2166,297.0699,96.3459,263.772,0.00011012,1.465e-05,0.0,0 STARLINK-4494,1 53558U 22101AH  23309.69332869  .00001465  00000-0  11012-3 0  9999,2 53558  53.2166 297.0699 0001641  96.3459 263.7720 15.08842560 67303,6917.873,95.437,540.873,538.602,0.0
